ONEWEB-0474             
1 51654U 22012AJ  23323.44474071 -.00000820  00000+0 -23847-2 0  9999
2 51654  87.9004 223.0963 0001407  61.1330 298.9939 13.10374371 86094
ONEWEB-0475             
1 51655U 22012AK  23323.59990483 -.00000011  00000+0 -61459-4 0  9991
2 51655  87.9233 192.8497 0001475  60.1876 299.9402 13.17649200 89826
ONEWEB-0490             
1 54113U 22138A   23323.55145134  .00000041  00000+0  70310-4 0  9990
2 54113  87.9174 132.2023 0001391  90.5707 269.5585 13.19725503 52763
ONEWEB-0492             
1 54114U 22138B   23323.50089487  .00000099  00000+0  21407-3 0  9999
2 54114  87.9171 132.2074 0001145  89.2334 270.8930 13.19726614 52768
ONEWEB-0495             
1 54115U 22138C   23323.47880112  .00000081  00000+0  17074-3 0  9996
2 54115  87.9172 132.2233 0001151  75.3629 284.7631 13.19723106 52740
ONEWEB-0497             
1 54116U 22138D   23323.49142159  .00000169  00000+0  39097-3 0  9997
2 54116  87.9175 132.2149 0001373  89.2763 270.8527 13.19727341 52733
ONEWEB-0499             
1 54117U 22138E   23323.47405517  .00000092  00000+0  19822-3 0  9995
2 54117  87.9172 132.2142 0001835  72.6169 287.5164 13.19725136 52746
ONEWEB-0500             
1 54118U 22138F   23323.47719982  .00000116  00000+0  25747-3 0  9990
2 54118  87.9177 132.2120 0001423  92.8282 267.3014 13.19727804 52756
